*******************************************************************************
Ephemeris / WWW_USER Mon Mar 10 07:40:24 2025 Pasadena, USA      / Horizons    
*******************************************************************************
Target body name: 584778 (2017 RG16)              {source: JPL#32}
Center body name: Earth (399)                     {source: DE441}
Center-site name: Mauna Kea
*******************************************************************************
Start time      : A.D. 2018-Sep-03 04:45:00.0000 UT      
Stop  time      : A.D. 2018-Sep-03 15:57:00.0000 UT      
Step-size       : 1 minutes
*******************************************************************************
Target pole/equ : undefined
Target radii    : undefined                                                    
Center geodetic : 204.5278, 19.8260847, 4.21024   {E-lon(deg),Lat(deg),Alt(km)}
Center cylindric: 204.5278, 6006.35451, 2151.0229 {E-lon(deg),Dxy(km),Dz(km)}
Center pole/equ : ITRF93                          {East-longitude positive}
Center radii    : 6378.137, 6378.137, 6356.752 km {Equator_a, b, pole_c}       
Target primary  : Sun
Vis. interferer : MOON (R_eq= 1737.400) km        {source: DE441}
Rel. light bend : Sun                             {source: DE441}
Rel. lght bnd GM: 1.3271E+11 km^3/s^2                                          
Small-body perts: Yes                             {source: SB441-N16}
Atmos refraction: NO (AIRLESS)
RA format       : HMS
Time format     : CAL 
Calendar mode   : Mixed Julian/Gregorian
RTS-only print  : NO       
EOP file        : eop.250307.p250603                                           
EOP coverage    : DATA-BASED 1962-JAN-20 TO 2025-MAR-07. PREDICTS-> 2025-JUN-02
Units conversion: 1 au= 149597870.700 km, c= 299792.458 km/s, 1 day= 86400.0 s 
Table cut-offs 1: Elevation (-90.0deg=NO ),Airmass (>38.000=NO), Daylight (YES)
Table cut-offs 2: Solar elongation (  0.0,180.0=NO ),Local Hour Angle( 0.0=NO )
Table cut-offs 3: RA/DEC angular rate (     0.0=NO )                           
*******************************************************************************
Initial IAU76/J2000 heliocentric ecliptic osculating elements (au, days, deg.):
  EPOCH=  2458734.5 ! 2019-Sep-08.00 (TDB)         Residual RMS= .14786        
   EC= .9085798704456644   QR= 7.106644157383132   TP= 2457926.6828443832      
   OM= .547367620295521    W=  323.0265763955561   IN= 74.86683883750447       
  Equivalent ICRF heliocentric cartesian coordinates (au, au/d):
   X= 8.360714527577798E+00  Y=-2.241293784086399E-01  Z= 2.069107023705337E+00
  VX= 1.416407206608659E-03 VY=-1.132497676729848E-03 VZ= 7.848232694960624E-03
Asteroid physical parameters (km, seconds, rotational period in hours):        
   GM= n.a.                RAD= n.a.               ROTPER= n.a.                
   H= 11.32                G= .150                 B-V= n.a.                   
                           ALBEDO= n.a.            STYP= n.a.                  
*******************************************************************************
 Date__(UT)__HR:MN     R.A._________(ICRF)_________DEC
******************************************************
$$SOE
 2018-Sep-03 12:57  m  00 17 27.630403 -06 21 00.03519
 2018-Sep-03 12:58  m  00 17 27.607293 -06 21 00.01084
 2018-Sep-03 12:59  m  00 17 27.584184 -06 20 59.98648
 2018-Sep-03 13:00  m  00 17 27.561075 -06 20 59.96213
 2018-Sep-03 13:01  m  00 17 27.537966 -06 20 59.93777
 2018-Sep-03 13:02  m  00 17 27.514858 -06 20 59.91341
 2018-Sep-03 13:03  m  00 17 27.491750 -06 20 59.88904
 2018-Sep-03 13:04  m  00 17 27.468642 -06 20 59.86468
 2018-Sep-03 13:05  m  00 17 27.445535 -06 20 59.84031
 2018-Sep-03 13:06  m  00 17 27.422429 -06 20 59.81594
 2018-Sep-03 13:07  m  00 17 27.399322 -06 20 59.79157
 2018-Sep-03 13:08  m  00 17 27.376216 -06 20 59.76719
 2018-Sep-03 13:09  m  00 17 27.353111 -06 20 59.74282
 2018-Sep-03 13:10  m  00 17 27.330006 -06 20 59.71844
 2018-Sep-03 13:11  m  00 17 27.306901 -06 20 59.69405
 2018-Sep-03 13:12  m  00 17 27.283797 -06 20 59.66967
 2018-Sep-03 13:13  m  00 17 27.260693 -06 20 59.64528
 2018-Sep-03 13:14  m  00 17 27.237590 -06 20 59.62089
 2018-Sep-03 13:15  m  00 17 27.214487 -06 20 59.59650
 2018-Sep-03 13:16  m  00 17 27.191384 -06 20 59.57211
 2018-Sep-03 13:17  m  00 17 27.168282 -06 20 59.54771
 2018-Sep-03 13:18  m  00 17 27.145181 -06 20 59.52331
 2018-Sep-03 13:19  m  00 17 27.122080 -06 20 59.49891
 2018-Sep-03 13:20  m  00 17 27.098979 -06 20 59.47451
 2018-Sep-03 13:21  m  00 17 27.075879 -06 20 59.45010
 2018-Sep-03 13:22  m  00 17 27.052779 -06 20 59.42569
 2018-Sep-03 13:23  m  00 17 27.029680 -06 20 59.40128
 2018-Sep-03 13:24  m  00 17 27.006582 -06 20 59.37687
 2018-Sep-03 13:25  m  00 17 26.983484 -06 20 59.35245
 2018-Sep-03 13:26  m  00 17 26.960386 -06 20 59.32804
 2018-Sep-03 13:27  m  00 17 26.937289 -06 20 59.30362
 2018-Sep-03 13:28  m  00 17 26.914192 -06 20 59.27919
 2018-Sep-03 13:29  m  00 17 26.891096 -06 20 59.25477
 2018-Sep-03 13:30  m  00 17 26.868001 -06 20 59.23034
 2018-Sep-03 13:31  m  00 17 26.844906 -06 20 59.20591
 2018-Sep-03 13:32  m  00 17 26.821812 -06 20 59.18148
 2018-Sep-03 13:33  m  00 17 26.798718 -06 20 59.15705
 2018-Sep-03 13:34  m  00 17 26.775625 -06 20 59.13261
 2018-Sep-03 13:35  m  00 17 26.752532 -06 20 59.10817
 2018-Sep-03 13:36  m  00 17 26.729440 -06 20 59.08373
 2018-Sep-03 13:37  m  00 17 26.706349 -06 20 59.05929
 2018-Sep-03 13:38  m  00 17 26.683258 -06 20 59.03485
 2018-Sep-03 13:39  m  00 17 26.660168 -06 20 59.01040
 2018-Sep-03 13:40  m  00 17 26.637078 -06 20 58.98595
 2018-Sep-03 13:41  m  00 17 26.613989 -06 20 58.96150
 2018-Sep-03 13:42  m  00 17 26.590900 -06 20 58.93704
 2018-Sep-03 13:43  m  00 17 26.567813 -06 20 58.91259
 2018-Sep-03 13:44  m  00 17 26.544725 -06 20 58.88813
 2018-Sep-03 13:45  m  00 17 26.521639 -06 20 58.86367
 2018-Sep-03 13:46  m  00 17 26.498553 -06 20 58.83921
 2018-Sep-03 13:47  m  00 17 26.475468 -06 20 58.81474
 2018-Sep-03 13:48  m  00 17 26.452383 -06 20 58.79027
 2018-Sep-03 13:49  m  00 17 26.429299 -06 20 58.76580
 2018-Sep-03 13:50  m  00 17 26.406216 -06 20 58.74133
 2018-Sep-03 13:51  m  00 17 26.383134 -06 20 58.71686
 2018-Sep-03 13:52  m  00 17 26.360052 -06 20 58.69238
 2018-Sep-03 13:53  m  00 17 26.336971 -06 20 58.66790
 2018-Sep-03 13:54  m  00 17 26.313890 -06 20 58.64342
 2018-Sep-03 13:55  m  00 17 26.290810 -06 20 58.61894
 2018-Sep-03 13:56  m  00 17 26.267731 -06 20 58.59445
 2018-Sep-03 13:57  m  00 17 26.244653 -06 20 58.56997
 2018-Sep-03 13:58  m  00 17 26.221575 -06 20 58.54548
 2018-Sep-03 13:59  m  00 17 26.198498 -06 20 58.52099
 2018-Sep-03 14:00  m  00 17 26.175422 -06 20 58.49649
 2018-Sep-03 14:01  m  00 17 26.152346 -06 20 58.47200
 2018-Sep-03 14:02  m  00 17 26.129272 -06 20 58.44750
 2018-Sep-03 14:03  m  00 17 26.106198 -06 20 58.42300
 2018-Sep-03 14:04  m  00 17 26.083124 -06 20 58.39850
 2018-Sep-03 14:05  m  00 17 26.060052 -06 20 58.37399
 2018-Sep-03 14:06  m  00 17 26.036980 -06 20 58.34949
 2018-Sep-03 14:07  m  00 17 26.013909 -06 20 58.32498
 2018-Sep-03 14:08  m  00 17 25.990839 -06 20 58.30047
 2018-Sep-03 14:09  m  00 17 25.967770 -06 20 58.27596
 2018-Sep-03 14:10  m  00 17 25.944701 -06 20 58.25144
 2018-Sep-03 14:11  m  00 17 25.921633 -06 20 58.22693
 2018-Sep-03 14:12  m  00 17 25.898566 -06 20 58.20241
 2018-Sep-03 14:13  m  00 17 25.875500 -06 20 58.17789
 2018-Sep-03 14:14  m  00 17 25.852435 -06 20 58.15336
 2018-Sep-03 14:15  m  00 17 25.829370 -06 20 58.12884
 2018-Sep-03 14:16  m  00 17 25.806306 -06 20 58.10431
 2018-Sep-03 14:17  m  00 17 25.783243 -06 20 58.07978
 2018-Sep-03 14:18  m  00 17 25.760181 -06 20 58.05525
 2018-Sep-03 14:19  m  00 17 25.737120 -06 20 58.03072
 2018-Sep-03 14:20  m  00 17 25.714060 -06 20 58.00618
 2018-Sep-03 14:21  m  00 17 25.691000 -06 20 57.98165
 2018-Sep-03 14:22  m  00 17 25.667941 -06 20 57.95711
 2018-Sep-03 14:23  m  00 17 25.644883 -06 20 57.93257
 2018-Sep-03 14:24  m  00 17 25.621826 -06 20 57.90802
 2018-Sep-03 14:25  m  00 17 25.598770 -06 20 57.88348
 2018-Sep-03 14:26  m  00 17 25.575715 -06 20 57.85893
 2018-Sep-03 14:27  m  00 17 25.552661 -06 20 57.83438
 2018-Sep-03 14:28  m  00 17 25.529607 -06 20 57.80983
 2018-Sep-03 14:29  m  00 17 25.506555 -06 20 57.78528
 2018-Sep-03 14:30  m  00 17 25.483503 -06 20 57.76073
 2018-Sep-03 14:31  m  00 17 25.460452 -06 20 57.73617
 2018-Sep-03 14:32  m  00 17 25.437402 -06 20 57.71161
 2018-Sep-03 14:33  m  00 17 25.414353 -06 20 57.68705
 2018-Sep-03 14:34  m  00 17 25.391305 -06 20 57.66249
 2018-Sep-03 14:35  m  00 17 25.368258 -06 20 57.63792
 2018-Sep-03 14:36  m  00 17 25.345212 -06 20 57.61336
 2018-Sep-03 14:37  m  00 17 25.322167 -06 20 57.58879
 2018-Sep-03 14:38  m  00 17 25.299123 -06 20 57.56422
 2018-Sep-03 14:39  m  00 17 25.276079 -06 20 57.53965
 2018-Sep-03 14:40  m  00 17 25.253037 -06 20 57.51507
 2018-Sep-03 14:41  m  00 17 25.229995 -06 20 57.49050
 2018-Sep-03 14:42  m  00 17 25.206955 -06 20 57.46592
 2018-Sep-03 14:43  m  00 17 25.183915 -06 20 57.44134
 2018-Sep-03 14:44  m  00 17 25.160877 -06 20 57.41676
 2018-Sep-03 14:45  m  00 17 25.137839 -06 20 57.39218
 2018-Sep-03 14:46  m  00 17 25.114803 -06 20 57.36759
 2018-Sep-03 14:47  m  00 17 25.091767 -06 20 57.34301
 2018-Sep-03 14:48  m  00 17 25.068732 -06 20 57.31842
 2018-Sep-03 14:49  m  00 17 25.045699 -06 20 57.29383
 2018-Sep-03 14:50  m  00 17 25.022666 -06 20 57.26924
 2018-Sep-03 14:51  m  00 17 24.999635 -06 20 57.24464
 2018-Sep-03 14:52  m  00 17 24.976604 -06 20 57.22005
 2018-Sep-03 14:53 Am  00 17 24.953574 -06 20 57.19545
 2018-Sep-03 14:54 Am  00 17 24.930546 -06 20 57.17085
 2018-Sep-03 14:55 Am  00 17 24.907518 -06 20 57.14625
 2018-Sep-03 14:56 Am  00 17 24.884492 -06 20 57.12165
 2018-Sep-03 14:57 Am  00 17 24.861466 -06 20 57.09704
 2018-Sep-03 14:58 Am  00 17 24.838442 -06 20 57.07244
 2018-Sep-03 14:59 Am  00 17 24.815419 -06 20 57.04783
